{
  "norad_id": 57433,
  "name": "STARLINK-30105",
  "history": [
    {
      "epoch": "2026-03-28T21:37:40.463328Z",
      "apogee_km": 483.79360204668683,
      "perigee_km": 482.17712161823965,
      "latitude_deg": 2.1965932137979594e-05,
      "longitude_deg": 131.6021637403035,
      "height_km": 482.78189478851857,
      "semi_major_axis_km": 6861.122361832463,
      "eccentricity": 0.0001178,
      "inclination_deg": 43.0013,
      "raan_deg": 282.3357,
      "arg_perigee_deg": 268.5905,
      "mean_anomaly_deg": 91.4812,
      "mean_motion_rev_day": 15.27601285
    }
  ]
}