{"fetched_at":"2026-03-29T16:36:15Z","count":15609,"tles":[{"name":"STARLINK-30105","line1":"1 57433U 23105D   26087.90116277  .00003319  00000+0  13000-3 0  9991","line2":"2 57433  43.0013 282.3357 0001178 268.5905  91.4812 15.27601285151264","category":"Starlink"}]}